#dP2023  5  5  6  0  0.00000000      96 __u+U ITR00 EXT  IAC
## 2260 453600.00000000   900.00000000 60069 0.2500000000000
+  117   C06C07C08C09C10C11C12C13C14C16C19C20C21C22C23C24C25
+        C26C27C28C29C30C32C33C34C35C36C37C38C39C40C41C42C43
+        C44C45C46E02E03E04E05E07E08E09E10E11E12E13E14E15E18
+        E19E21E24E25E26E27E30E31E33E34E36G01G02G03G04G05G06
+        G07G08G09G10G11G12G13G14G15G16G17G18G19G20G21G22G23
+        G24G25G26G27G28G29G30G31G32J03J04R01R02R03R04R05R07
+        R08R09R11R12R13R14R15R16R17R18R19R20R21R22R24  0  0
++        11  9  8  9  9  9  8  9  9 10  9  9  8  9  9  9  7
++         8  9  8  8  8  9  9  9  9  8  8  9  9 11  8  9  9
++        10  8  8  8  8  8  8  7  8  8  9  9  8  8  8  9  8
++         8  9  8  9  8  9  8  8  9  9  9  9 10  9  9  9  9
++         9  9  9  9  9  9  8  9  8  9  9  9  9  9  9  9  7
++         9 13  8  9  8  9  9  8  8 10 11  9  8  9  8  8  8
++         7  9  9  8  9  8 10  8  7  9  8  7  8  8  7  0  0
%c M  cc GPS ccc cccc cccc cccc cccc ccccc ccccc ccccc ccccc
%c cc cc ccc ccc cccc cccc cccc cccc ccccc ccccc ccccc ccccc
%f  0.0000000  0.000000000  0.00000000000  0.000000000000000
%f  0.0000000  0.000000000  0.00000000000  0.000000000000000
%i    0    0    0    0      0      0      0      0         0
%i    0    0    0    0      0      0      0      0         0
/* IAC                                ULTRA-RAPID PREDICTION
/* S/V CLOCKS ARE ALIGNED TO GNSS TIME                      
/* G:C1WC2W R:C1PC2P E:C1XC5X C:C2IC6I J:C1CC2S             
/* PCV:IGS20_2247 OL/AL:FES2004  NONE     YN ORB:CoN CLK:CoN
*  2023 05 06  3 45  0.00000000
PC06  -3036.998943  37428.796331 -18879.161973   -230.041220
PC07 -11605.202160  25657.953551  31396.130239    -12.193196
PC08 -19122.250621  34582.689159 -14954.955819    455.616367
PC09   3181.207127  40557.660780  -9520.892045    650.778510
PC10  -1528.834457  27365.714119  32344.832822    -86.974966
PC11  -4975.397002 -25266.552996 -10671.047638    567.808652
PC12   9169.378792 -14166.219015 -22194.001037    583.224620
PC13 -12661.525867  34764.396901 -20309.960364    232.355310
PC14   -869.263629 -15782.324154  23017.710826    183.476348
PC16  -4984.757557  35506.412179 -21715.596467     51.654592
PC19  12001.908900  14306.024940 -20716.256202   -943.232289
PC20  -8255.273444  14901.302502 -22078.156847    549.229571
PC21  25196.243437  -6476.759722  10159.539415   -948.932641
PC22  26375.221298   5484.158808  -7343.088926   -537.945281
PC23 -15664.465159  -5361.715383 -22459.202228   -957.446549
PC24  12793.774155 -24664.224407  -2482.163203   -123.865892
PC25  -3362.376449 -20732.094498 -18373.607803     84.781933
PC26  19472.714019 -14984.354317  13185.312064   -152.255007
PC27 -14793.857316   6059.074626  22848.901091     99.986164
PC28 -19272.233988 -12228.025581  16055.976363     64.466190
PC29  13168.233751  24547.600835   1617.165720     80.554038
PC30  -1748.097887  21447.891236  17742.102311    -36.050609
PC32 -25161.228985   6612.669650 -10051.031867   -602.858047
PC33 -11925.333336 -14309.857777  20780.794769   -914.689402
PC34    710.940500 -22215.852208 -16903.908312    128.415188
PC35  19744.447311  12194.837407 -15485.528871    596.990269
PC36   2265.234054  21260.847512  17958.388639   -494.666556
PC37 -19940.952324  13500.959603 -14106.743495   -821.117016
PC38 -23263.531749  34655.788931  -6426.270667     40.452041
PC39  -7234.225158  32081.288078 -26216.708669    -38.827337
PC40 -15969.274389  19167.016942  33935.503839    -58.370596
PC41 -26083.743225  -5855.136149   8041.235882   -977.255921
PC42   9792.012088 -14695.352103  21663.609042   -740.702523
PC43 -12571.427899 -24809.724398  -2449.303073    -15.953263
PC44  14779.710060  -6533.944366 -22766.924927     61.768636
PC45  15795.074497   4843.893216  22488.486293   -129.977501
PC46 -11832.914919  24979.849781   3978.472469    -87.991761
PE02 -27080.994950   5657.143297 -10553.987107     36.471730
PE03 -25445.578993  -4203.831474 -14510.295771   -676.146607
PE04  13001.841700 -11643.622811  23920.354537   -116.018739
PE05 -23216.413655 -17985.811526   3693.463426    -70.132876
PE07   7209.794121  20989.336276 -19580.024352    -42.921937
PE08 -13145.801154  11347.739450 -23961.515280    -78.558775
PE09  -7092.278718 -20843.118319  19785.743043     -4.834419
PE10   6086.971893 -27958.438258  -7595.983937   -531.627650
PE11   -514.959127 -29461.399720   2918.315198   1835.242729
PE12  11334.186589 -22269.113577 -15894.572442   -526.896732
PE13     67.421920  29514.674285  -2158.577665    -19.066086
PE14  13383.958257 -14630.901463 -23611.128403    217.055866
PE15 -11399.597775  21993.631791  16192.518892    -19.659209
PE18   3085.990849  20551.798388  16576.363805     30.903853
PE19  26054.641403   6552.967441  12438.988178  -2600.582714
PE21  16865.638915   8817.543110  22667.162329   -527.451916
PE24   4459.216128 -19271.710986 -22030.135844    -83.057298
PE25 -16577.010131  -9058.176054 -22788.061115   -604.574330
PE26  11790.343249  18980.097518 -19413.426852     95.845859
PE27  -3643.359010  19071.323316  22343.935991    -42.417211
PE30 -22219.441694  17703.015511   8322.254943   -149.836625
PE31  21779.249390 -17977.104508  -8861.271024   -523.121475
PE33  16041.385053  -1572.423997 -24829.285825   -444.859865
PE34 -16036.221986   1766.827019  24806.914887    -43.910877
PE36 -11337.208657 -19673.639973  18994.486775    -51.853310
PG01 -13209.852700  14184.821600  17656.598508    151.521664
PG02  -6926.837701 -23851.625144  10429.933195   -635.089326
PG03 -22733.961439  13150.342734  -3621.806413   -347.318037
PG04 -14937.217183   6906.206313 -20857.861908     -1.790355
PG05  23581.385868  -2702.781219 -12212.600320   -162.101629
PG06   5808.662192  22740.725333 -12274.969819    552.112322
PG07  -6469.753889  24725.527839  -5760.597886    149.130635
PG08 -22528.920560  -3275.140540  13929.745952   -157.091551
PG09  -4659.297579  15107.814098 -21407.056111   -201.092678
PG10  -2631.828491 -15017.428920  21894.091483    -71.751788
PG11  13051.382567  10196.398211 -20765.232723   -222.645038
PG12  24408.571596 -10288.645112  -1399.328412   -408.525202
PG13  21939.201189  11855.456359   9256.197497    479.878272
PG14   -953.750481  16537.464833  20742.918447     11.357814
PG15  22647.505843    267.687922  13624.452978      0.949726
PG16 -22567.468872  -2526.975336 -14444.397810   -539.417731
PG17   9031.481728  20276.719721  14935.400459    677.692444
PG18   4849.876607 -25868.282322  -2897.524361   -290.315285
PG19  16313.947334  20109.531928   6342.153987    277.061443
PG20  18423.607344   3632.332781 -18673.921457    399.138483
PG21 -15210.021643   4382.561910  21772.200348    117.955994
PG22 -18142.733620 -19133.130043   4297.433437    440.458762
PG23  10324.523032 -17811.869404  16700.357529    -14.055820
PG24  14418.077391 -10038.226109  19445.915441   -214.216421
PG25  17258.856534 -16900.788366 -11046.364540    404.768135
PG26 -13395.293959 -10149.634517 -20745.165260    205.124067
PG27 -23159.121028 -12690.901771   4219.466282      7.588759
PG28  -5926.346680 -23719.669939 -10408.992674     38.646647
PG29   8776.452212 -12063.143056 -22029.494248   -634.349046
PG30   1071.304672  25941.419749   4985.376350   -554.767547
PG31 -10854.588441 -16357.076850 -17863.390305   -251.516540
PG32 -12760.694000 -19730.022956  12753.572284   -505.472203
PJ03 -26271.911254  25032.128310  26531.608462    -32.437429
PJ04 -32379.321513  20099.998502 -12821.870310     58.393590
PR01  23087.463854   7770.112187  -7589.017688     56.958760
PR02  23029.245027   -351.650268  10945.607030    -22.868134
PR03   9563.272636  -8679.905547  22038.000097     77.319641
PR04  -8796.618655 -11796.444216  20872.453953    186.095233
PR05 -22457.580381  -8785.984592   8363.211487    112.097898
PR07  -8843.997918   8881.861324 -22177.853204     55.311735
PR08   9058.253311  11808.531476 -20644.274562    -70.651075
PR09 -18410.467011  12253.365484 -12622.843259    118.597458
PR11  -3606.371781  17466.209210  18239.158976    -49.899456
PR12  11340.642805   3462.080302  22607.047370     27.032226
PR13  18194.953363 -10791.624626  14238.333531    -34.721591
PR14  14809.850033 -20332.560832  -4286.192563     24.646982
PR15   2745.823898 -16902.453935 -18889.926676     89.436540
PR16 -11016.698612  -3585.566441 -22713.210422     14.277208
PR17   2234.886377 -18548.941543 -17347.002490    627.440114
PR18  -6605.386398 -24542.888137  -2480.799267     80.090374
PR19 -11257.145376 -19171.352754  12501.944997   -231.567680
PR20 -10537.360394    646.147040  23224.857314    -92.375812
PR21  -1412.943164  19621.345364  16244.217542     -5.288938
PR22   6132.326890  24702.405407   1576.805533     81.821192
PR24  10756.964635  -1860.416342 -23043.682056    167.911967
EOF
